start=new Date('2022-09-20T00:00:00.000Z').valueOf();
sats=[{"BSTAR":"0.00025971000000","COUNTRY_CODE":"US","ELEMENT_SET_NO":"999","RCS_SIZE":"LARGE","OBJECT_NAME":"STARLINK-1963","APOAPSIS":"548.208","NORAD_CAT_ID":"47564","INCLINATION":"53.0541","FILE":"3577797","OBJECT_ID":"2021-009S","MEAN_MOTION_DOT":"0.00003590","DECAY_DATE":null,"REV_AT_EPOCH":"9053","PERIOD":"95.592","MEAN_MOTION":"15.06407610","CLASSIFICATION_TYPE":"U","MEAN_ELEMENT_THEORY":"SGP4","MEAN_MOTION_DDOT":"0.0000000000000","TIME_SYSTEM":"UTC","SITE":"AFETR","REF_FRAME":"TEME","TLE_LINE2":"2 47564  53.0541 300.3935 0001470  80.3750 279.7405 15.06407610 90535","MEAN_ANOMALY":"279.7405","SEMIMAJOR_AXIS":"6925.325","ECCENTRICITY":"0.00014700","ARG_OF_PERICENTER":"80.3750","OBJECT_TYPE":"PAYLOAD","RA_OF_ASC_NODE":"300.3935","TLE_LINE1":"1 47564U 21009S   22262.47118252  .00003590  00000-0  25971-3 0  9996","EPHEMERIS_TYPE":"0","CENTER_NAME":"EARTH","GP_ID":"212976551","LAUNCH_DATE":"2021-02-04","PERIAPSIS":"546.172","EPOCH":"2022-09-19T11:18:30.169728"},{"TLE_LINE1":"1 47565U 21009T   22262.46749852  .00001681  00000-0  13175-3 0  9994","EPHEMERIS_TYPE":"0","CENTER_NAME":"EARTH","PERIAPSIS":"546.249","LAUNCH_DATE":"2021-02-04","GP_ID":"212976559","EPOCH":"2022-09-19T11:13:11.872128","MEAN_MOTION_DDOT":"0.0000000000000","SITE":"AFETR","TIME_SYSTEM":"UTC","SEMIMAJOR_AXIS":"6925.353","TLE_LINE2":"2 47565  53.0549 300.4054 0001400  65.7351 294.3784 15.06398534 90531","MEAN_ANOMALY":"294.3784","REF_FRAME":"TEME","ECCENTRICITY":"0.00014000","ARG_OF_PERICENTER":"65.7351","OBJECT_TYPE":"PAYLOAD","RA_OF_ASC_NODE":"300.4054","OBJECT_ID":"2021-009T","MEAN_MOTION_DOT":"0.00001681","DECAY_DATE":null,"REV_AT_EPOCH":"9053","MEAN_MOTION":"15.06398534","PERIOD":"95.592","MEAN_ELEMENT_THEORY":"SGP4","CLASSIFICATION_TYPE":"U","BSTAR":"0.00013175000000","COUNTRY_CODE":"US","RCS_SIZE":"LARGE","ELEMENT_SET_NO":"999","OBJECT_NAME":"STARLINK-1964","NORAD_CAT_ID":"47565","APOAPSIS":"548.188","FILE":"3577798","INCLINATION":"53.0549"},{"NORAD_CAT_ID":"47566","APOAPSIS":"548.194","FILE":"3578162","INCLINATION":"53.0546","BSTAR":"-0.00001141400000","COUNTRY_CODE":"US","RCS_SIZE":"LARGE","OBJECT_NAME":"STARLINK-1965","ELEMENT_SET_NO":"999","DECAY_DATE":null,"REV_AT_EPOCH":"9013","MEAN_MOTION":"15.06395307","PERIOD":"95.592","CLASSIFICATION_TYPE":"U","MEAN_ELEMENT_THEORY":"SGP4","OBJECT_ID":"2021-009U","MEAN_MOTION_DOT":"-0.00000451","SITE":"AFETR","TIME_SYSTEM":"UTC","TLE_LINE2":"2 47566  53.0546 288.6519 0001395  73.4095 286.7047 15.06395307 90134","SEMIMAJOR_AXIS":"6925.363","MEAN_ANOMALY":"286.7047","REF_FRAME":"TEME","ARG_OF_PERICENTER":"73.4095","ECCENTRICITY":"0.00013950","RA_OF_ASC_NODE":"288.6519","OBJECT_TYPE":"PAYLOAD","MEAN_MOTION_DDOT":"0.0000000000000","CENTER_NAME":"EARTH","PERIAPSIS":"546.262","GP_ID":"213031283","LAUNCH_DATE":"2021-02-04","EPOCH":"2022-09-19T20:37:09.275232","TLE_LINE1":"1 47566U 21009U   22262.85913513 -.00000451  00000-0 -11414-4 0  9996","EPHEMERIS_TYPE":"0"},{"MEAN_MOTION_DDOT":"0.0000000000000","REF_FRAME":"TEME","TLE_LINE2":"2 47567  53.0555 329.6760 0001294  83.0052 277.1085 15.06395892 89534","MEAN_ANOMALY":"277.1085","SEMIMAJOR_AXIS":"6925.361","TIME_SYSTEM":"UTC","SITE":"AFETR","RA_OF_ASC_NODE":"329.6760","OBJECT_TYPE":"PAYLOAD","ECCENTRICITY":"0.00012940","ARG_OF_PERICENTER":"83.0052","TLE_LINE1":"1 47567U 21009V   22262.63060261  .00000444  00000-0  48691-4 0  9993","EPHEMERIS_TYPE":"0","LAUNCH_DATE":"2021-02-04","GP_ID":"213031033","PERIAPSIS":"546.330","CENTER_NAME":"EARTH","EPOCH":"2022-09-19T15:08:04.065504","COUNTRY_CODE":"US","BSTAR":"0.00004869100000","OBJECT_NAME":"STARLINK-1966","RCS_SIZE":"LARGE","ELEMENT_SET_NO":"999","APOAPSIS":"548.122","NORAD_CAT_ID":"47567","INCLINATION":"53.0555","FILE":"3578162","OBJECT_ID":"2021-009V","MEAN_MOTION_DOT":"0.00000444","REV_AT_EPOCH":"8953","DECAY_DATE":null,"MEAN_ELEMENT_THEORY":"SGP4","CLASSIFICATION_TYPE":"U","PERIOD":"95.592","MEAN_MOTION":"15.06395892"},{"MEAN_MOTION_DDOT":"0.0000000000000","OBJECT_TYPE":"PAYLOAD","RA_OF_ASC_NODE":"329.5601","ARG_OF_PERICENTER":"59.6900","ECCENTRICITY":"0.00013370","REF_FRAME":"TEME","SEMIMAJOR_AXIS":"6925.343","TLE_LINE2":"2 47568  53.0554 329.5601 0001337  59.6900 300.4221 15.06401895 89540","MEAN_ANOMALY":"300.4221","TIME_SYSTEM":"UTC","SITE":"AFETR","EPHEMERIS_TYPE":"0","TLE_LINE1":"1 47568U 21009W   22262.65640644  .00002678  00000-0  19860-3 0  9991","EPOCH":"2022-09-19T15:45:13.516416","LAUNCH_DATE":"2021-02-04","GP_ID":"213032285","PERIAPSIS":"546.282","CENTER_NAME":"EARTH","ELEMENT_SET_NO":"999","RCS_SIZE":"LARGE","OBJECT_NAME":"STARLINK-1967","COUNTRY_CODE":"US","BSTAR":"0.00019860000000","INCLINATION":"53.0554","FILE":"3578162","APOAPSIS":"548.134","NORAD_CAT_ID":"47568","MEAN_MOTION_DOT":"0.00002678","OBJECT_ID":"2021-009W","MEAN_ELEMENT_THEORY":"SGP4","CLASSIFICATION_TYPE":"U","PERIOD":"95.592","MEAN_MOTION":"15.06401895","REV_AT_EPOCH":"8954","DECAY_DATE":null},{"EPHEMERIS_TYPE":"0","TLE_LINE1":"1 47569U 21009X   22262.84669841  .00081853  00000-0  75208-3 0  9993","EPOCH":"2022-09-19T20:19:14.742624","CENTER_NAME":"EARTH","PERIAPSIS":"364.436","LAUNCH_DATE":"2021-02-04","GP_ID":"213032035","MEAN_MOTION_DDOT":"0.0000000000000","ARG_OF_PERICENTER":"135.2539","ECCENTRICITY":"0.00044900","RA_OF_ASC_NODE":"202.8817","OBJECT_TYPE":"PAYLOAD","SITE":"AFETR","TIME_SYSTEM":"UTC","TLE_LINE2":"2 47569  53.0562 202.8817 0004490 135.2539 224.8839 15.67010369 91359","SEMIMAJOR_AXIS":"6745.600","MEAN_ANOMALY":"224.8839","REF_FRAME":"TEME","MEAN_MOTION_DOT":"0.00081853","OBJECT_ID":"2021-009X","MEAN_MOTION":"15.67010369","PERIOD":"91.895","MEAN_ELEMENT_THEORY":"SGP4","CLASSIFICATION_TYPE":"U","DECAY_DATE":null,"REV_AT_EPOCH":"9135","RCS_SIZE":"LARGE","ELEMENT_SET_NO":"999","OBJECT_NAME":"STARLINK-1968","BSTAR":"0.00075208000000","COUNTRY_CODE":"US","FILE":"3578162","INCLINATION":"53.0562","NORAD_CAT_ID":"47569","APOAPSIS":"370.494"},{"EPHEMERIS_TYPE":"0","TLE_LINE1":"1 47570U 21009Y   22262.51633370  .00000832  00000-0  74741-4 0  9997","EPOCH":"2022-09-19T12:23:31.231680","PERIAPSIS":"546.272","GP_ID":"213008179","LAUNCH_DATE":"2021-02-04","CENTER_NAME":"EARTH","MEAN_MOTION_DDOT":"0.0000000000000","RA_OF_ASC_NODE":"290.1777","OBJECT_TYPE":"PAYLOAD","ARG_OF_PERICENTER":"70.9843","ECCENTRICITY":"0.00013570","TLE_LINE2":"2 47570  53.0547 290.1777 0001357  70.9843 289.1293 15.06400548 90690","MEAN_ANOMALY":"289.1293","SEMIMAJOR_AXIS":"6925.347","REF_FRAME":"TEME","SITE":"AFETR","TIME_SYSTEM":"UTC","MEAN_MOTION_DOT":"0.00000832","OBJECT_ID":"2021-009Y","CLASSIFICATION_TYPE":"U","MEAN_ELEMENT_THEORY":"SGP4","MEAN_MOTION":"15.06400548","PERIOD":"95.592","REV_AT_EPOCH":"9069","DECAY_DATE":null,"OBJECT_NAME":"STARLINK-1969","RCS_SIZE":"LARGE","ELEMENT_SET_NO":"999","COUNTRY_CODE":"US","BSTAR":"0.00007474100000","FILE":"3578080","INCLINATION":"53.0547","NORAD_CAT_ID":"47570","APOAPSIS":"548.152"},{"EPHEMERIS_TYPE":"0","TLE_LINE1":"1 47571U 21009Z   22262.79186129  .00003282  00000-0  23909-3 0  9994","EPOCH":"2022-09-19T19:00:16.815456","CENTER_NAME":"EARTH","PERIAPSIS":"546.180","LAUNCH_DATE":"2021-02-04","GP_ID":"213031534","MEAN_MOTION_DDOT":"0.0000000000000","ARG_OF_PERICENTER":"69.5927","ECCENTRICITY":"0.00014850","RA_OF_ASC_NODE":"298.9505","OBJECT_TYPE":"PAYLOAD","SITE":"AFETR","TIME_SYSTEM":"UTC","TLE_LINE2":"2 47571  53.0551 298.9505 0001485  69.5927 290.5222 15.06401809 89989","MEAN_ANOMALY":"290.5222","SEMIMAJOR_AXIS":"6925.343","REF_FRAME":"TEME","MEAN_MOTION_DOT":"0.00003282","OBJECT_ID":"2021-009Z","MEAN_MOTION":"15.06401809","PERIOD":"95.592","MEAN_ELEMENT_THEORY":"SGP4","CLASSIFICATION_TYPE":"U","DECAY_DATE":null,"REV_AT_EPOCH":"8998","ELEMENT_SET_NO":"999","RCS_SIZE":"LARGE","OBJECT_NAME":"STARLINK-1970","BSTAR":"0.00023909000000","COUNTRY_CODE":"US","FILE":"3578162","INCLINATION":"53.0551","NORAD_CAT_ID":"47571","APOAPSIS":"548.236"},{"EPHEMERIS_TYPE":"0","TLE_LINE1":"1 47572U 21009AA  22262.37535325  .00000963  00000-0  83562-4 0  9990","EPOCH":"2022-09-19T09:00:30.520800","CENTER_NAME":"EARTH","LAUNCH_DATE":"2021-02-04","GP_ID":"213000268","PERIAPSIS":"546.284","MEAN_MOTION_DDOT":"0.0000000000000","ECCENTRICITY":"0.00013550","ARG_OF_PERICENTER":"66.2744","OBJECT_TYPE":"PAYLOAD","RA_OF_ASC_NODE":"300.8231","TIME_SYSTEM":"UTC","SITE":"AFETR","REF_FRAME":"TEME","TLE_LINE2":"2 47572  53.0544 300.8231 0001355  66.2744 293.8387 15.06397269 89924","SEMIMAJOR_AXIS":"6925.357","MEAN_ANOMALY":"293.8387","MEAN_MOTION_DOT":"0.00000963","OBJECT_ID":"2021-009AA","PERIOD":"95.592","MEAN_MOTION":"15.06397269","MEAN_ELEMENT_THEORY":"SGP4","CLASSIFICATION_TYPE":"U","DECAY_DATE":null,"REV_AT_EPOCH":"8992","RCS_SIZE":"LARGE","OBJECT_NAME":"STARLINK-1971","ELEMENT_SET_NO":"999","BSTAR":"0.00008356200000","COUNTRY_CODE":"US","INCLINATION":"53.0544","FILE":"3577889","APOAPSIS":"548.160","NORAD_CAT_ID":"47572"},{"BSTAR":"0.00014698000000","COUNTRY_CODE":"US","RCS_SIZE":"LARGE","ELEMENT_SET_NO":"999","OBJECT_NAME":"STARLINK-1975","NORAD_CAT_ID":"47573","APOAPSIS":"548.148","FILE":"3577801","INCLINATION":"53.0535","OBJECT_ID":"2021-009AB","MEAN_MOTION_DOT":"0.00001908","DECAY_DATE":null,"REV_AT_EPOCH":"9053","MEAN_MOTION":"15.06398517","PERIOD":"95.592","CLASSIFICATION_TYPE":"U","MEAN_ELEMENT_THEORY":"SGP4","MEAN_MOTION_DDOT":"0.0000000000000","SITE":"AFETR","TIME_SYSTEM":"UTC","TLE_LINE2":"2 47573  53.0535 300.3204 0001343  71.7931 288.3204 15.06398517 90539","SEMIMAJOR_AXIS":"6925.353","MEAN_ANOMALY":"288.3204","REF_FRAME":"TEME","ARG_OF_PERICENTER":"71.7931","ECCENTRICITY":"0.00013430","RA_OF_ASC_NODE":"300.3204","OBJECT_TYPE":"PAYLOAD","TLE_LINE1":"1 47573U 21009AB  22262.48593300  .00001908  00000-0  14698-3 0  9993","EPHEMERIS_TYPE":"0","CENTER_NAME":"EARTH","PERIAPSIS":"546.288","LAUNCH_DATE":"2021-02-04","GP_ID":"212976576","EPOCH":"2022-09-19T11:39:44.611200"}];
